{
  "type": "FeatureCollection",
  "features": [
    {
      "type": "Feature",
      "properties": {
        "norad_id": 37238,
        "name": "INTELSAT 17 (IS-17)",
        "group": "intelsat",
        "lat": -0.014708191436078898,
        "lon": -66.57468123807972,
        "alt_km": 35776.74571551114,
        "timestamp": "2025-12-14T09:36:22.702362+00:00",
        "meta_object_name": "INTELSAT 17 (IS-17)",
        "meta_object_id": "2010-065B",
        "meta_epoch": "2025-12-13T15:28:31.621152",
        "meta_mean_motion": 1.0027154,
        "meta_eccentricity": 0.00024982,
        "meta_inclination": 0.0064,
        "meta_ra_of_asc_node": 323.398,
        "meta_arg_of_pericenter": 302.4861,
        "meta_mean_anomaly": 114.8302,
        "meta_ephemeris_type": 0,
        "meta_classification_type": "U",
        "meta_norad_cat_id": 37238,
        "meta_element_set_no": 999,
        "meta_rev_at_epoch": 5138,
        "meta_bstar": 0,
        "meta_mean_motion_dot": 1.4e-07,
        "meta_mean_motion_ddot": 0,
        "tle_line1": "1 37238U 10065B   25347.64481043  .00000014  00000+0  00000+0 0  9999",
        "tle_line2": "2 37238   0.0064 323.3980 0002498 302.4861 114.8302  1.00271540 51386"
      },
      "geometry": {
        "type": "Point",
        "coordinates": [
          -66.57468123807972,
          -0.014708191436078898
        ]
      }
    },
    {
      "type": "Feature",
      "properties": {
        "norad_id": 37392,
        "name": "INTELSAT 28 (IS-28)",
        "group": "intelsat",
        "lat": 1.2297959309392743,
        "lon": -164.3076416724851,
        "alt_km": 35780.52175282754,
        "timestamp": "2025-12-14T09:36:22.702373+00:00",
        "meta_object_name": "INTELSAT 28 (IS-28)",
        "meta_object_id": "2011-016A",
        "meta_epoch": "2025-12-13T11:35:08.971008",
        "meta_mean_motion": 1.00273036,
        "meta_eccentricity": 0.00037543,
        "meta_inclination": 1.3266,
        "meta_ra_of_asc_node": 85.0457,
        "meta_arg_of_pericenter": 181.9304,
        "meta_mean_anomaly": 317.5438,
        "meta_ephemeris_type": 0,
        "meta_classification_type": "U",
        "meta_norad_cat_id": 37392,
        "meta_element_set_no": 999,
        "meta_rev_at_epoch": 5142,
        "meta_bstar": 0,
        "meta_mean_motion_dot": -2.1e-06,
        "meta_mean_motion_ddot": 0,
        "tle_line1": "1 37392U 11016A   25347.48274272 -.00000210  00000+0  00000+0 0  9992",
        "tle_line2": "2 37392   1.3266  85.0457 0003754 181.9304 317.5438  1.00273036 51423"
      },
      "geometry": {
        "type": "Point",
        "coordinates": [
          -164.3076416724851,
          1.2297959309392743
        ]
      }
    },
    {
      "type": "Feature",
      "properties": {
        "norad_id": 37834,
        "name": "INTELSAT 18 (IS-18)",
        "group": "intelsat",
        "lat": 0.036466111289544016,
        "lon": 47.41467249618047,
        "alt_km": 35791.30792358553,
        "timestamp": "2025-12-14T09:36:22.702385+00:00",
        "meta_object_name": "INTELSAT 18 (IS-18)",
        "meta_object_id": "2011-056A",
        "meta_epoch": "2025-12-13T13:21:31.838400",
        "meta_mean_motion": 1.00272159,
        "meta_eccentricity": 0.0001828,
        "meta_inclination": 0.0175,
        "meta_ra_of_asc_node": 319.5455,
        "meta_arg_of_pericenter": 313.7128,
        "meta_mean_anomaly": 189.6056,
        "meta_ephemeris_type": 0,
        "meta_classification_type": "U",
        "meta_norad_cat_id": 37834,
        "meta_element_set_no": 999,
        "meta_rev_at_epoch": 5195,
        "meta_bstar": 0,
        "meta_mean_motion_dot": 6.8e-07,
        "meta_mean_motion_ddot": 0,
        "tle_line1": "1 37834U 11056A   25347.55661850  .00000068  00000+0  00000+0 0  9997",
        "tle_line2": "2 37834   0.0175 319.5455 0001828 313.7128 189.6056  1.00272159 51958"
      },
      "geometry": {
        "type": "Point",
        "coordinates": [
          47.41467249618047,
          0.036466111289544016
        ]
      }
    },
    {
      "type": "Feature",
      "properties": {
        "norad_id": 38098,
        "name": "INTELSAT 22 (IS-22)",
        "group": "intelsat",
        "lat": -0.014142999619911603,
        "lon": -60.46785455887813,
        "alt_km": 35780.001247879096,
        "timestamp": "2025-12-14T09:36:22.702397+00:00",
        "meta_object_name": "INTELSAT 22 (IS-22)",
        "meta_object_id": "2012-011A",
        "meta_epoch": "2025-12-13T15:30:16.452864",
        "meta_mean_motion": 1.0027125,
        "meta_eccentricity": 0.00017364,
        "meta_inclination": 0.0007,
        "meta_ra_of_asc_node": 357.2619,
        "meta_arg_of_pericenter": 270.1968,
        "meta_mean_anomaly": 119.804,
        "meta_ephemeris_type": 0,
        "meta_classification_type": "U",
        "meta_norad_cat_id": 38098,
        "meta_element_set_no": 999,
        "meta_rev_at_epoch": 532,
        "meta_bstar": 0,
        "meta_mean_motion_dot": -4.3e-07,
        "meta_mean_motion_ddot": 0,
        "tle_line1": "1 38098U 12011A   25347.64602376 -.00000043  00000+0  00000+0 0  9994",
        "tle_line2": "2 38098   0.0007 357.2619 0001736 270.1968 119.8040  1.00271250  5321"
      },
      "geometry": {
        "type": "Point",
        "coordinates": [
          -60.46785455887813,
          -0.014142999619911603
        ]
      }
    },
    {
      "type": "Feature",
      "properties": {
        "norad_id": 38356,
        "name": "INTELSAT 19 (IS-19)",
        "group": "intelsat",
        "lat": 0.017104969281295224,
        "lon": 33.45302471887907,
        "alt_km": 35793.34862625476,
        "timestamp": "2025-12-14T09:36:22.702413+00:00",
        "meta_object_name": "INTELSAT 19 (IS-19)",
        "meta_object_id": "2012-030A",
        "meta_epoch": "2025-12-13T14:14:23.719776",
        "meta_mean_motion": 1.00272639,
        "meta_eccentricity": 0.00033632,
        "meta_inclination": 0.0102,
        "meta_ra_of_asc_node": 11.2403,
        "meta_arg_of_pericenter": 260.4104,
        "meta_mean_anomaly": 190.485,
        "meta_ephemeris_type": 0,
        "meta_classification_type": "U",
        "meta_norad_cat_id": 38356,
        "meta_element_set_no": 999,
        "meta_rev_at_epoch": 4859,
        "meta_bstar": 0,
        "meta_mean_motion_dot": -4.1e-07,
        "meta_mean_motion_ddot": 0,
        "tle_line1": "1 38356U 12030A   25347.59333009 -.00000041  00000+0  00000+0 0  9998",
        "tle_line2": "2 38356   0.0102  11.2403 0003363 260.4104 190.4850  1.00272639 48596"
      },
      "geometry": {
        "type": "Point",
        "coordinates": [
          33.45302471887907,
          0.017104969281295224
        ]
      }
    },
    {
      "type": "Feature",
      "properties": {
        "norad_id": 38740,
        "name": "INTELSAT 20 (IS-20)",
        "group": "intelsat",
        "lat": -0.00284800200114832,
        "lon": -64.06093731229194,
        "alt_km": 35791.411276291146,
        "timestamp": "2025-12-14T09:36:22.702424+00:00",
        "meta_object_name": "INTELSAT 20 (IS-20)",
        "meta_object_id": "2012-043A",
        "meta_epoch": "2025-12-13T15:29:16.549152",
        "meta_mean_motion": 1.00270625,
        "meta_eccentricity": 0.00031806,
        "meta_inclination": 0.0059,
        "meta_ra_of_asc_node": 73.5076,
        "meta_arg_of_pericenter": 110.142,
        "meta_mean_anomaly": 199.7483,
        "meta_ephemeris_type": 0,
        "meta_classification_type": "U",
        "meta_norad_cat_id": 38740,
        "meta_element_set_no": 999,
        "meta_rev_at_epoch": 4888,
        "meta_bstar": 0,
        "meta_mean_motion_dot": -9e-08,
        "meta_mean_motion_ddot": 0,
        "tle_line1": "1 38740U 12043A   25347.64533043 -.00000009  00000+0  00000+0 0  9999",
        "tle_line2": "2 38740   0.0059  73.5076 0003180 110.1420 199.7483  1.00270625 48889"
      },
      "geometry": {
        "type": "Point",
        "coordinates": [
          -64.06093731229194,
          -0.00284800200114832
        ]
      }
    },
    {
      "type": "Feature",
      "properties": {
        "norad_id": 38749,
        "name": "INTELSAT 21 (IS-21)",
        "group": "intelsat",
        "lat": 0.01846067904572609,
        "lon": 169.38928719007433,
        "alt_km": 35786.18191848374,
        "timestamp": "2025-12-14T09:36:22.702436+00:00",
        "meta_object_name": "INTELSAT 21 (IS-21)",
        "meta_object_id": "2012-045A",
        "meta_epoch": "2025-12-13T11:27:39.688416",
        "meta_mean_motion": 1.00272152,
        "meta_eccentricity": 0.00017689,
        "meta_inclination": 0.0288,
        "meta_ra_of_asc_node": 72.7632,
        "meta_arg_of_pericenter": 187.4215,
        "meta_mean_anomaly": 296.1447,
        "meta_ephemeris_type": 0,
        "meta_classification_type": "U",
        "meta_norad_cat_id": 38749,
        "meta_element_set_no": 999,
        "meta_rev_at_epoch": 4866,
        "meta_bstar": 0,
        "meta_mean_motion_dot": -2.7e-06,
        "meta_mean_motion_ddot": 0,
        "tle_line1": "1 38749U 12045A   25347.47754269 -.00000270  00000+0  00000+0 0  9996",
        "tle_line2": "2 38749   0.0288  72.7632 0001768 187.4215 296.1447  1.00272152 48665"
      },
      "geometry": {
        "type": "Point",
        "coordinates": [
          169.38928719007433,
          0.01846067904572609
        ]
      }
    }
  ]
}